CHALLENGER              
1 42721U 98067MA  18009.46740913  .00037640  00000-0  33916-3 0  9993
2 42721  51.6361  79.7447 0006309 353.5578   6.5336 15.67779085 35794
NJUST-1                 
1 42722U 98067MB  18009.49066197  .00013883  00000-0  16408-3 0  9992
2 42722  51.6383  83.6814 0006459 357.3740   2.7218 15.61590605 35745
UNSW-ECO                
1 42723U 98067MC  18008.75710991  .00019569  00000-0  20509-3 0  9993
2 42723  51.6387  85.5367 0006075 351.5955   8.4937 15.64392622 35633
DUTHSAT                 
1 42724U 98067MD  18009.18686744  .00034731  00000-0  32143-3 0  9995
2 42724  51.6368  81.6382 0005487 353.9452   6.1477 15.67163531 35644
LILACSAT-1              
1 42725U 98067ME  18009.51020726  .00016859  00000-0  19035-3 0  9991
2 42725  51.6383  83.0639 0005547 358.7080   1.3899 15.62603673 35657
NSIGHT-1                
1 42726U 98067MF  18009.46785230  .00006957  00000-0  94325-4 0  9998
2 42726  51.6399  85.7949 0005918   3.8740 356.2298 15.58911341 35622
SNUSAT-1                
1 42727U 98067MG  18009.44918940  .00017085  00000-0  19320-3 0  9998
2 42727  51.6367  83.3828 0007002 322.1974  37.8527 15.62542820 35613
QBITO                   
1 42728U 98067MH  18009.44989362  .00019432  00000-0  21214-3 0  9998
2 42728  51.6398  82.6833 0003235   2.5697 357.5313 15.63365810 35462
AALTO-2                 
1 42729U 98067MJ  18009.44647124  .00019284  00000-0  20976-3 0  9995
2 42729  51.6382  82.6408 0003248   1.9169 358.1838 15.63464818 35473
SUSAT                   
1 42730U 98067MK  18009.47522976  .00018150  00000-0  20158-3 0  9990
2 42730  51.6378  82.8255 0003301   0.2239 359.8757 15.62976201 35462
I-INSPIRE II            
1 42731U 98067ML  18009.43719392  .00024079  00000-0  24747-3 0  9992
2 42731  51.6370  81.7990 0006262 309.9014  50.1430 15.64742172 35524
POLYITAN-2-SAU          
1 42732U 98067MM  18009.43247942  .00018936  00000-0  20455-3 0  9997
2 42732  51.6377  82.5259 0006310 308.4564  51.5864 15.63642914 35514
SNUSAT-1B               
1 42733U 98067MN  18009.41250861  .00018018  00000-0  20012-3 0  9990
2 42733  51.6377  83.1477 0006365 310.8717  49.1725 15.62966983 35503
EXALTA-1                
1 42734U 98067MP  18009.50676664  .00024160  00000-0  24810-3 0  9999
2 42734  51.6365  81.5146 0007598 332.9296  27.1301 15.64749813 35488
AOXIANG-1               
1 42735U 98067MQ  18009.47897984  .00014198  00000-0  16662-3 0  9992
2 42735  51.6376  83.5940 0006980 354.4065   5.6850 15.61748376 36876
BEEAGLESAT              
1 42736U 98067MR  18009.44687755  .00017031  00000-0  19382-3 0  9994
2 42736  51.6373  83.3781 0006860 352.6599   7.4293 15.62382401 35564
ATLANTIS                
1 42737U 98067MS  18009.39087910  .00089488  00000-0  54554-3 0  9991
2 42737  51.6304  75.4184 0007311 349.7868  10.2982 15.76635787 35555
PROGRESS-MS 06          
1 42756U 17033A   17361.53692593  .00001778  00000-0  33974-4 0  9991
2 42756  51.6414 154.4377 0002507 297.8505 171.2653 15.54221350 30510
ISS DEB (ROSA)          
1 42813U 98067MT  18009.19123136  .00293066  00000-0  10326-2 0  9992
2 42813  51.6313  75.5645 0008034 359.4627   0.6368 15.87754482 30931
SOYUZ-MS 06             
1 42937U 17054A   18008.62394841  .00001631  00000-0  31726-4 0  9990
2 42937  51.6424  94.1745 0003213 354.0612 110.2657 15.54272651 93708
PROGRESS-MS 07          
1 42971U 17065A   18008.62394841  .00001631  00000-0  31726-4 0  9990
2 42971  51.6424  94.1745 0003213 354.0612 110.2657 15.54272651 93706
SIMPL                   
1 42983U 98067NF  18009.49232541  .00002112  00000-0  37850-4 0  9997
2 42983  51.6421  89.4969 0004070 340.3609 113.9728 15.55107532 11511
CYGNUS OA-8             
1 43006U 17071A   17351.78936505  .00011394  00000-0  13588-3 0  9995
2 43006  51.6350 202.8079 0014913  98.0333 262.8611 15.61481175  5489
ECAMSAT                 
1 43019U 98067NG  18009.21947390  .00004686  00000-0  74658-4 0  9998
2 43019  51.6405  90.8765 0004881 305.2119  54.8415 15.55356939 93793
ASTERIA                 
1 43020U 98067NH  18009.46938066  .00011429  00000-0  16920-3 0  9997
2 43020  51.6404  89.5481 0002267 307.1457  52.9327 15.55780510  7754
DELLINGR (RBLE)         
1 43021U 98067NJ  18008.70579954  .00005595  00000-0  87647-4 0  9993
2 43021  51.6406  93.4474 0001976 303.0034  57.0767 15.55390666  7635
TECHEDSAT 6             
1 43026U 98067NK  18009.52063736  .00058731  00000-0  70262-3 0  9999
2 43026  51.6384  88.3877 0003415 343.3754  16.7126 15.60400921  7678
OSIRIS-3U               
1 43027U 98067NL  18009.51225030  .00018145  00000-0  25339-3 0  9996
2 43027  51.6399  89.0837 0003340 286.6849  73.3776 15.56925382  7645
DRAGON CRS-13           
1 43060U 17080A   18008.62394841  .00001631  00000-0  31726-4 0  9997
2 43060  51.6424  94.1745 0003213 354.0612 110.2657 15.54272651  3730
DRAGON CRS-13 DEB       
1 43061U 17080B   17353.81187793  .08543521  12275-4  16801-2 0  9990
2 43061  51.6245 191.4575 0035121  66.2476 313.8351 16.28765966   677
DRAGON CRS-13 DEB       
1 43062U 17080C   17353.87393120  .08359610  12257-4  19425-2 0  9999
2 43062  51.6463 191.2243 0043204  63.3240 297.8194 16.26136877   686
SOYUZ-MS 07             
1 43063U 17081A   18008.62394841  .00001631  00000-0  31726-4 0  9991
2 43063  51.6424  94.1745 0003213 354.0612 110.2657 15.54272651 93709
SL-4 R/B                
1 43064U 17081B   17354.54571424  .17225168  12679-4  24518-3 0  9990
2 43064  51.6390 188.2427 0005612  64.7452 295.4767 16.48599011   528
